[{"OBJECT_NAME":"GEOSCAN 1 (RS92S1)","OBJECT_ID":"2025-155E","EPOCH":"2026-03-09T22:44:05.846496","MEAN_MOTION":15.28410635,"ECCENTRICITY":0.00087099,"INCLINATION":97.4463,"RA_OF_ASC_NODE":37.403,"ARG_OF_PERICENTER":153.6429,"MEAN_ANOMALY":206.5255,"EPHEMERIS_TYPE":0,"CLASSIFICATION_TYPE":"U","NORAD_CAT_ID":64880,"ELEMENT_SET_NO":999,"REV_AT_EPOCH":6560,"BSTAR":0.00054367431,"MEAN_MOTION_DOT":0.00014993,"MEAN_MOTION_DDOT":0},{"OBJECT_NAME":"STARLINK-35274","OBJECT_ID":"2025-235R","EPOCH":"2026-03-09T17:36:10.368576","MEAN_MOTION":15.30212157,"ECCENTRICITY":0.00011389,"INCLINATION":53.1599,"RA_OF_ASC_NODE":245.3852,"ARG_OF_PERICENTER":125.2737,"MEAN_ANOMALY":234.8371,"EPHEMERIS_TYPE":0,"CLASSIFICATION_TYPE":"U","NORAD_CAT_ID":66073,"ELEMENT_SET_NO":999,"REV_AT_EPOCH":2292,"BSTAR":0.00085005779,"MEAN_MOTION_DOT":0.00024911,"MEAN_MOTION_DDOT":0}]
